RASSVET-3 2             
1 68361U 26061B   26093.24009410  .00081221  11412-5  27846-3 0  9997
2 68361  82.2966  96.7903 0026649  35.3912 324.9121 15.88917892  1677
RASSVET-3 3             
1 68362U 26061C   26093.23994176  .00076564  88802-6  26246-3 0  9994
2 68362  82.2965  96.7897 0026503  35.2511 325.0506 15.88921772  1673
RASSVET-3 4             
1 68363U 26061D   26093.23979882  .00076573  88886-6  26227-3 0  9993
2 68363  82.2966  96.7899 0026526  35.1376 325.1638 15.88937564  1673
RASSVET-3 5             
1 68364U 26061E   26093.23967999  .00075664  84157-6  25890-3 0  9992
2 68364  82.2965  96.7894 0026473  35.2470 325.0545 15.88958483  1674
RASSVET-3 6             
1 68365U 26061F   26093.23937306  .00077339  93225-6  26326-3 0  9994
2 68365  82.2965  96.7890 0026327  35.3212 324.9797 15.89069733  1673
RASSVET-3 7             
1 68366U 26061G   26093.05055419  .00083609  12782-5  28621-3 0  9996
2 68366  82.2966  97.0027 0026389  35.9575 324.3464 15.88962743  1641
RASSVET-3 8             
1 68367U 26061H   26093.05063030  .00083014  12435-5  28445-3 0  9994
2 68367  82.2965  97.0025 0026366  35.9292 324.3745 15.88943610  1644
RASSVET-3 9             
1 68368U 26061J   26092.98686461  .00156709  74741-5  52499-3 0  9991
2 68368  82.2960  97.0723 0025784  36.3918 323.9100 15.89457134  1639
RASSVET-3 10            
1 68369U 26061K   26093.05033833  .00080919  11261-5  27664-3 0  9993
2 68369  82.2965  97.0023 0026259  35.8523 324.4504 15.88991690  1646
RASSVET-3 11            
1 68370U 26061L   26093.05004453  .00081489  11591-5  27820-3 0  9994
2 68370  82.2965  97.0018 0026019  35.6802 324.6201 15.89031055  1641
RASSVET-3 12            
1 68371U 26061M   26093.04982009  .00083309  12644-5  28357-3 0  9995
2 68371  82.2965  97.0015 0025987  35.6905 324.6096 15.89093001  1647
RASSVET-3 13            
1 68372U 26061N   26093.04965183  .00082170  11992-5  27979-3 0  9999
2 68372  82.2966  97.0011 0025781  35.5788 324.7196 15.89094058  1640
RASSVET-3 14            
1 68373U 26061P   26093.04927206  .00083524  12788-5  28336-3 0  9990
2 68373  82.2966  97.0006 0025743  35.4460 324.8516 15.89169452  1647
RASSVET-3 15            
1 68374U 26061Q   26093.04920583  .00082975  12475-5  28148-3 0  9995
2 68374  82.2967  97.0007 0025523  35.4749 324.8213 15.89180614  1643
RASSVET-3 16            
1 68375U 26061R   26093.23655591  .00110643  31451-5  36325-3 0  9996
2 68375  82.2956  96.7842 0024581  36.3033 323.9900 15.89888730  1674
SUPERVIEW NEO-2 OBJECT A
1 68377U 26062A   26093.28833616  .00005676  00000+0  26190-3 0  9998
2 68377  97.4363 101.6579 0006358 235.5724 124.4911 15.20613401  1279
