[{"OBJECT_NAME":"RASSVET-3 2","OBJECT_ID":"2026-061B","EPOCH":"2026-04-03T05:45:44.130240","MEAN_MOTION":15.88917892,"ECCENTRICITY":0.00266497,"INCLINATION":82.2966,"RA_OF_ASC_NODE":96.7903,"ARG_OF_PERICENTER":35.3912,"MEAN_ANOMALY":324.9121,"EPHEMERIS_TYPE":0,"CLASSIFICATION_TYPE":"U","NORAD_CAT_ID":68361,"ELEMENT_SET_NO":999,"REV_AT_EPOCH":167,"BSTAR":0.00027846007,"MEAN_MOTION_DOT":0.00081221,"MEAN_MOTION_DDOT":1.141246e-6},{"OBJECT_NAME":"RASSVET-3 3","OBJECT_ID":"2026-061C","EPOCH":"2026-04-03T05:45:30.968064","MEAN_MOTION":15.88921772,"ECCENTRICITY":0.00265031,"INCLINATION":82.2965,"RA_OF_ASC_NODE":96.7897,"ARG_OF_PERICENTER":35.2511,"MEAN_ANOMALY":325.0506,"EPHEMERIS_TYPE":0,"CLASSIFICATION_TYPE":"U","NORAD_CAT_ID":68362,"ELEMENT_SET_NO":999,"REV_AT_EPOCH":167,"BSTAR":0.00026246091,"MEAN_MOTION_DOT":0.00076564,"MEAN_MOTION_DDOT":8.88017e-7},{"OBJECT_NAME":"RASSVET-3 4","OBJECT_ID":"2026-061D","EPOCH":"2026-04-03T05:45:18.618048","MEAN_MOTION":15.88937564,"ECCENTRICITY":0.00265269,"INCLINATION":82.2966,"RA_OF_ASC_NODE":96.7899,"ARG_OF_PERICENTER":35.1376,"MEAN_ANOMALY":325.1638,"EPHEMERIS_TYPE":0,"CLASSIFICATION_TYPE":"U","NORAD_CAT_ID":68363,"ELEMENT_SET_NO":999,"REV_AT_EPOCH":167,"BSTAR":0.00026227045,"MEAN_MOTION_DOT":0.00076573,"MEAN_MOTION_DDOT":8.88857e-7},{"OBJECT_NAME":"RASSVET-3 5","OBJECT_ID":"2026-061E","EPOCH":"2026-04-03T05:45:08.351136","MEAN_MOTION":15.88958483,"ECCENTRICITY":0.00264737,"INCLINATION":82.2965,"RA_OF_ASC_NODE":96.7894,"ARG_OF_PERICENTER":35.247,"MEAN_ANOMALY":325.0545,"EPHEMERIS_TYPE":0,"CLASSIFICATION_TYPE":"U","NORAD_CAT_ID":68364,"ELEMENT_SET_NO":999,"REV_AT_EPOCH":167,"BSTAR":0.00025890115,"MEAN_MOTION_DOT":0.00075664,"MEAN_MOTION_DDOT":8.41572e-7},{"OBJECT_NAME":"RASSVET-3 6","OBJECT_ID":"2026-061F","EPOCH":"2026-04-03T05:44:41.832384","MEAN_MOTION":15.89069733,"ECCENTRICITY":0.00263277,"INCLINATION":82.2965,"RA_OF_ASC_NODE":96.789,"ARG_OF_PERICENTER":35.3212,"MEAN_ANOMALY":324.9797,"EPHEMERIS_TYPE":0,"CLASSIFICATION_TYPE":"U","NORAD_CAT_ID":68365,"ELEMENT_SET_NO":999,"REV_AT_EPOCH":167,"BSTAR":0.00026326463,"MEAN_MOTION_DOT":0.00077339,"MEAN_MOTION_DDOT":9.32254e-7},{"OBJECT_NAME":"RASSVET-3 7","OBJECT_ID":"2026-061G","EPOCH":"2026-04-03T01:12:47.882016","MEAN_MOTION":15.88962743,"ECCENTRICITY":0.00263892,"INCLINATION":82.2966,"RA_OF_ASC_NODE":97.0027,"ARG_OF_PERICENTER":35.9575,"MEAN_ANOMALY":324.3464,"EPHEMERIS_TYPE":0,"CLASSIFICATION_TYPE":"U","NORAD_CAT_ID":68366,"ELEMENT_SET_NO":999,"REV_AT_EPOCH":164,"BSTAR":0.00028620566,"MEAN_MOTION_DOT":0.00083609,"MEAN_MOTION_DDOT":1.27816e-6},{"OBJECT_NAME":"RASSVET-3 8","OBJECT_ID":"2026-061H","EPOCH":"2026-04-03T01:12:54.457920","MEAN_MOTION":15.8894361,"ECCENTRICITY":0.00263662,"INCLINATION":82.2965,"RA_OF_ASC_NODE":97.0025,"ARG_OF_PERICENTER":35.9292,"MEAN_ANOMALY":324.3745,"EPHEMERIS_TYPE":0,"CLASSIFICATION_TYPE":"U","NORAD_CAT_ID":68367,"ELEMENT_SET_NO":999,"REV_AT_EPOCH":164,"BSTAR":0.00028445255,"MEAN_MOTION_DOT":0.00083014,"MEAN_MOTION_DDOT":1.243519e-6},{"OBJECT_NAME":"RASSVET-3 9","OBJECT_ID":"2026-061J","EPOCH":"2026-04-02T23:41:05.102304","MEAN_MOTION":15.89457134,"ECCENTRICITY":0.00257844,"INCLINATION":82.296,"RA_OF_ASC_NODE":97.0723,"ARG_OF_PERICENTER":36.3918,"MEAN_ANOMALY":323.91,"EPHEMERIS_TYPE":0,"CLASSIFICATION_TYPE":"U","NORAD_CAT_ID":68368,"ELEMENT_SET_NO":999,"REV_AT_EPOCH":163,"BSTAR":0.00052499366,"MEAN_MOTION_DOT":0.00156709,"MEAN_MOTION_DDOT":7.474089e-6},{"OBJECT_NAME":"RASSVET-3 10","OBJECT_ID":"2026-061K","EPOCH":"2026-04-03T01:12:29.231712","MEAN_MOTION":15.8899169,"ECCENTRICITY":0.00262592,"INCLINATION":82.2965,"RA_OF_ASC_NODE":97.0023,"ARG_OF_PERICENTER":35.8523,"MEAN_ANOMALY":324.4504,"EPHEMERIS_TYPE":0,"CLASSIFICATION_TYPE":"U","NORAD_CAT_ID":68369,"ELEMENT_SET_NO":999,"REV_AT_EPOCH":164,"BSTAR":0.00027663938,"MEAN_MOTION_DOT":0.00080919,"MEAN_MOTION_DDOT":1.126083e-6},{"OBJECT_NAME":"RASSVET-3 11","OBJECT_ID":"2026-061L","EPOCH":"2026-04-03T01:12:03.847392","MEAN_MOTION":15.89031055,"ECCENTRICITY":0.00260198,"INCLINATION":82.2965,"RA_OF_ASC_NODE":97.0018,"ARG_OF_PERICENTER":35.6802,"MEAN_ANOMALY":324.6201,"EPHEMERIS_TYPE":0,"CLASSIFICATION_TYPE":"U","NORAD_CAT_ID":68370,"ELEMENT_SET_NO":999,"REV_AT_EPOCH":164,"BSTAR":0.00027819569,"MEAN_MOTION_DOT":0.00081489,"MEAN_MOTION_DDOT":1.159142e-6},{"OBJECT_NAME":"RASSVET-3 12","OBJECT_ID":"2026-061M","EPOCH":"2026-04-03T01:11:44.455776","MEAN_MOTION":15.89093001,"ECCENTRICITY":0.00259876,"INCLINATION":82.2965,"RA_OF_ASC_NODE":97.0015,"ARG_OF_PERICENTER":35.6905,"MEAN_ANOMALY":324.6096,"EPHEMERIS_TYPE":0,"CLASSIFICATION_TYPE":"U","NORAD_CAT_ID":68371,"ELEMENT_SET_NO":999,"REV_AT_EPOCH":164,"BSTAR":0.00028356824,"MEAN_MOTION_DOT":0.00083309,"MEAN_MOTION_DDOT":1.26435e-6},{"OBJECT_NAME":"RASSVET-3 13","OBJECT_ID":"2026-061N","EPOCH":"2026-04-03T01:11:29.918112","MEAN_MOTION":15.89094058,"ECCENTRICITY":0.00257813,"INCLINATION":82.2966,"RA_OF_ASC_NODE":97.0011,"ARG_OF_PERICENTER":35.5788,"MEAN_ANOMALY":324.7196,"EPHEMERIS_TYPE":0,"CLASSIFICATION_TYPE":"U","NORAD_CAT_ID":68372,"ELEMENT_SET_NO":999,"REV_AT_EPOCH":164,"BSTAR":0.00027978959,"MEAN_MOTION_DOT":0.0008217,"MEAN_MOTION_DDOT":1.199246e-6},{"OBJECT_NAME":"RASSVET-3 14","OBJECT_ID":"2026-061P","EPOCH":"2026-04-03T01:10:57.105984","MEAN_MOTION":15.89169452,"ECCENTRICITY":0.00257435,"INCLINATION":82.2966,"RA_OF_ASC_NODE":97.0006,"ARG_OF_PERICENTER":35.446,"MEAN_ANOMALY":324.8516,"EPHEMERIS_TYPE":0,"CLASSIFICATION_TYPE":"U","NORAD_CAT_ID":68373,"ELEMENT_SET_NO":999,"REV_AT_EPOCH":164,"BSTAR":0.00028336458,"MEAN_MOTION_DOT":0.00083524,"MEAN_MOTION_DDOT":1.278838e-6},{"OBJECT_NAME":"RASSVET-3 15","OBJECT_ID":"2026-061Q","EPOCH":"2026-04-03T01:10:51.383712","MEAN_MOTION":15.89180614,"ECCENTRICITY":0.00255236,"INCLINATION":82.2967,"RA_OF_ASC_NODE":97.0007,"ARG_OF_PERICENTER":35.4749,"MEAN_ANOMALY":324.8213,"EPHEMERIS_TYPE":0,"CLASSIFICATION_TYPE":"U","NORAD_CAT_ID":68374,"ELEMENT_SET_NO":999,"REV_AT_EPOCH":164,"BSTAR":0.00028147509,"MEAN_MOTION_DOT":0.00082975,"MEAN_MOTION_DDOT":1.247526e-6},{"OBJECT_NAME":"RASSVET-3 16","OBJECT_ID":"2026-061R","EPOCH":"2026-04-03T05:40:38.430624","MEAN_MOTION":15.8988873,"ECCENTRICITY":0.00245818,"INCLINATION":82.2956,"RA_OF_ASC_NODE":96.7842,"ARG_OF_PERICENTER":36.3033,"MEAN_ANOMALY":323.99,"EPHEMERIS_TYPE":0,"CLASSIFICATION_TYPE":"U","NORAD_CAT_ID":68375,"ELEMENT_SET_NO":999,"REV_AT_EPOCH":167,"BSTAR":0.00036324834,"MEAN_MOTION_DOT":0.00110643,"MEAN_MOTION_DDOT":3.145054e-6},{"OBJECT_NAME":"SUPERVIEW NEO-2 OBJECT A","OBJECT_ID":"2026-062A","EPOCH":"2026-04-03T06:55:12.244224","MEAN_MOTION":15.20613401,"ECCENTRICITY":0.00063584,"INCLINATION":97.4363,"RA_OF_ASC_NODE":101.6579,"ARG_OF_PERICENTER":235.5724,"MEAN_ANOMALY":124.4911,"EPHEMERIS_TYPE":0,"CLASSIFICATION_TYPE":"U","NORAD_CAT_ID":68377,"ELEMENT_SET_NO":999,"REV_AT_EPOCH":127,"BSTAR":0.000261903,"MEAN_MOTION_DOT":5.676e-5,"MEAN_MOTION_DDOT":0}]
